NAVSTAR 48 (USA 151)    
1 26407U 00040A   26183.71923948  .00000065  00000+0  00000+0 0  9995
2 26407  54.8498 214.5453 0120776 302.6038  35.8499  2.00557839190252
NAVSTAR 51 (USA 166)    
1 27663U 03005A   26183.55459918  .00000066  00000+0  00000+0 0  9998
2 27663  54.8804 214.3581 0148098  53.1314 302.5752  2.00559799171612
NAVSTAR 54 (USA 177)    
1 28190U 04009A   26182.92294126 -.00000019  00000+0  00000+0 0  9996
2 28190  54.8173 275.0916 0116696 173.7601 238.6833  2.00554338163243
NAVSTAR 56 (USA 180)    
1 28474U 04045A   26183.72896101 -.00000075  00000+0  00000+0 0  9993
2 28474  55.1264 324.2706 0169986 316.7712  22.6290  2.00556700158730
NAVSTAR 57 (USA 183)    
1 28874U 05038A   26183.80985119 -.00000014  00000+0  00000+0 0  9990
2 28874  54.8653 272.5467 0128077 296.2867  65.7673  2.00564684152153
INMARSAT 4-F2           
1 28899U 05044A   26183.48765168 -.00000252  00000+0  00000+0 0  9992
2 28899   5.1138  43.6644 0003205  48.1907 147.7098  1.00270461 75674
NAVSTAR 58 (USA 190)    
1 29486U 06042A   26183.45187067  .00000049  00000+0  00000+0 0  9990
2 29486  54.7123 150.7329 0106916  54.8273 307.4703  2.00569035144702
NAVSTAR 59 (USA 192)    
1 29601U 06052A   26183.37612397  .00000066  00000+0  00000+0 0  9999
2 29601  54.9335 213.4040 0084872  90.9430 270.0973  2.00559043143719
NAVSTAR 60 (USA 196)    
1 32260U 07047A   26182.68425560 -.00000029  00000+0  00000+0 0  9996
2 32260  54.1055  79.4682 0167312  87.6957 274.2611  2.00554677137104
COSMOS 2433 [GLONASS-M] 
1 32275U 07052A   26183.87038603 -.00000048  00000+0  00000+0 0  9999
2 32275  65.5669 315.4057 0003073 199.3999 160.5914  2.13104490145397
COSMOS 2432 [GLONASS-M] 
1 32276U 07052B   26182.26448800 -.00000056  00000+0  00000+0 0  9995
2 32276  65.5843 315.5873 0007461 327.2592 184.5642  2.13103422145382
NAVSTAR 61 (USA 199)    
1 32384U 07062A   26182.74759653 -.00000016  00000+0  00000+0 0  9996
2 32384  55.0200 273.5670 0035913 166.6056   6.7740  2.00561025135807
COSMOS 2434 [GLONASS-M] 
1 32393U 07065A   26182.84363084  .00000080  00000+0  00000+0 0  9999
2 32393  64.3196 191.4215 0001274 326.5999 215.4614  2.13101375144084
COSMOS 2436 [GLONASS-M] 
1 32395U 07065C   26181.60164814  .00000080  00000+0  00000+0 0  9994
2 32395  64.3275 191.5357 0017289 353.5646  87.9496  2.13100248144015
NAVSTAR 62 (USA 201)    
1 32711U 08012A   26183.09276397  .00000044  00000+0  00000+0 0  9994
2 32711  54.4990 149.3294 0211519 248.0118 109.6939  2.00572894134059
NAVSTAR 64 (USA 206)    
1 35752U 09043A   26183.33178933 -.00000063  00000+0  00000+0 0  9993
2 35752  56.2198  26.8574 0053805  83.8491  97.3796  2.00553591123660
COSMOS 2456 [GLONASS-M] 
1 36111U 09070A   26183.67073075 -.00000011  00000+0  00000+0 0  9994
2 36111  65.0199  70.4441 0003836 338.5659 276.2480  2.13103720128754
COSMOS 2457 [GLONASS-M] 
1 36112U 09070B   26183.40618711 -.00000011  00000+0  00000+0 0  9998
2 36112  65.0056  70.2964 0003551 124.4410  54.6960  2.13101396128754
COSMOS 2460 [GLONASS-M] 
1 36402U 10007C   26181.05593492 -.00000064  00000+0  00000+0 0  9997
2 36402  65.4124 314.0307 0001950 124.3103  53.7611  2.13101843127002
NAVSTAR 65 (USA 213)    
1 36585U 10022A   26183.16563838  .00000068  00000+0  00000+0 0  9994
2 36585  54.2695 207.9587 0126498  66.1356 114.4020  2.00563201117892
BEIDOU-2 IGSO-1         
1 36828U 10036A   26183.88383003 -.00000085  00000+0  00000+0 0  9992
2 36828  54.3058 162.8184 0058835 225.0696 318.6397  1.00267645 58251
BEIDOU-2 G4             
1 37210U 10057A   26183.82813796 -.00000104  00000+0  00000+0 0  9994
2 37210   3.6838  68.8565 0004857 189.1241 120.9880  1.00271462 57442
BEIDOU-2 IGSO-2         
1 37256U 10068A   26183.67533637 -.00000187  00000+0  00000+0 0  9993
2 37256  47.5191 271.6399 0056590 213.9221 146.5191  1.00278505 56954
BEIDOU-2 IGSO-3         
1 37384U 11013A   26183.55754922 -.00000159  00000+0  00000+0 0  9994
2 37384  62.4287  40.0069 0035256 183.9703   4.4649  1.00264616 55819
GSAT-8                  
1 37605U 11022A   26183.73611102  .00000094  00000+0  00000+0 0  9999
2 37605   2.1688  81.6457 0001952 172.9445 346.2785  1.00272277 53379
BEIDOU-2 IGSO-4         
1 37763U 11038A   26181.94400016  .00000017  00000+0  00000+0 0  9997
2 37763  54.6040 165.5504 0159650 231.3791 315.8344  1.00282911 54781
GSAT0101 (GALILEO-PFM)  
1 37846U 11060A   26183.68618705 -.00000078  00000+0  00000+0 0  9991
2 37846  56.9891 341.3414 0002697  57.4651 302.5541  1.70475831 91387
GSAT0102 (GALILEO-FM2)  
1 37847U 11060B   26183.02333984 -.00000080  00000+0  00000+0 0  9996
2 37847  56.9901 341.3598 0002590  13.5580 345.2921  1.70476092 91374
COSMOS 2476 [GLONASS-M] 
1 37867U 11064A   26182.27782083 -.00000014  00000+0  00000+0 0  9993
2 37867  65.2776  72.3955 0022369 237.1745 297.3682  2.13103985114069
COSMOS 2477 [GLONASS-M] 
1 37868U 11064B   26182.57363216 -.00000013  00000+0  00000+0 0  9999
2 37868  65.2840  72.4652 0019447 238.2691 343.5107  2.13103232114063
COSMOS 2475 [GLONASS-M] 
1 37869U 11064C   26182.57892419 -.00000013  00000+0  00000+0 0  9992
2 37869  65.2912  72.4865 0025163 252.1303 288.7676  2.13101976114072
